[{"OBJECT_NAME":"KESTREL-0A","OBJECT_ID":"2025-138D","EPOCH":"2026-03-09T23:29:46.959072","MEAN_MOTION":15.21159497,"ECCENTRICITY":0.00158913,"INCLINATION":97.443,"RA_OF_ASC_NODE":74.1203,"ARG_OF_PERICENTER":109.5327,"MEAN_ANOMALY":250.7627,"EPHEMERIS_TYPE":0,"CLASSIFICATION_TYPE":"U","NORAD_CAT_ID":64624,"ELEMENT_SET_NO":999,"REV_AT_EPOCH":3885,"BSTAR":0.00055701832,"MEAN_MOTION_DOT":0.00012392,"MEAN_MOTION_DDOT":0},{"OBJECT_NAME":"LEO EXPRESS 3","OBJECT_ID":"2025-276X","EPOCH":"2026-03-09T17:01:27.083136","MEAN_MOTION":15.18911167,"ECCENTRICITY":0.00089891,"INCLINATION":97.4301,"RA_OF_ASC_NODE":143.9034,"ARG_OF_PERICENTER":143.3594,"MEAN_ANOMALY":216.8257,"EPHEMERIS_TYPE":0,"CLASSIFICATION_TYPE":"U","NORAD_CAT_ID":66687,"ELEMENT_SET_NO":999,"REV_AT_EPOCH":1531,"BSTAR":0.00062123771,"MEAN_MOTION_DOT":0.00012924,"MEAN_MOTION_DDOT":0}]
